NORAD_CAT_ID,OBJECT_NAME,OBJECT_TYPE,EPOCH,MEAN_MOTION,ECCENTRICITY,INCLINATION,RA_OF_ASC_NODE,ARG_OF_PERICENTER,MEAN_ANOMALY,BSTAR,MEAN_MOTION_DOT,MEAN_MOTION_DDOT,TLE_LINE0,TLE_LINE1,TLE_LINE2,SEMIMAJOR_AXIS,PERIOD,APOGEE,PERIGEE,DECAYED
52003.0,STARLINK-3654,PAYLOAD,2023-09-14 20:39:08,15.08832611,0.0001287,53.2179,130.0349,95.4611,264.6528,9.5025e-05,1.224e-05,0.0,0 STARLINK-3654,1 52003U 22025AZ  23257.86051190  .00001224  00000-0  95025-4 0  9994,2 52003  53.2179 130.0349 0001287  95.4611 264.6528 15.08832611 84025,6917.903,95.438,540.658,538.878,0.0
52003.0,STARLINK-3654,PAYLOAD,2023-09-15 01:25:17,15.08840257,0.0001284,53.2176,129.1421,96.3712,263.7426,6.4966e-05,7.46e-06,0.0,0 STARLINK-3654,1 52003U 22025AZ  23258.05922871  .00000746  00000-0  64966-4 0  9997,2 52003  53.2176 129.1421 0001284  96.3712 263.7426 15.08840257 84056,6917.88,95.438,540.633,538.856,0.0
52003.0,STARLINK-3654,PAYLOAD,2023-09-16 01:16:03,15.08845435,0.0001305,53.2175,124.6813,87.3567,272.7574,0.00017026,2.423e-05,0.0,0 STARLINK-3654,1 52003U 22025AZ  23259.05282354  .00002423  00000-0  17026-3 0  9991,2 52003  53.2175 124.6813 0001305  87.3567 272.7574 15.08845435 85713,6917.864,95.437,540.632,538.826,0.0
52003.0,STARLINK-3654,PAYLOAD,2023-09-16 23:31:28,15.08845018,0.0001277,53.2174,120.5203,90.1707,269.9431,7.7026e-05,9.38e-06,0.0,0 STARLINK-3654,1 52003U 22025AZ  23259.98018689  .00000938  00000-0  77026-4 0  9997,2 52003  53.2174 120.5203 0001277  90.1707 269.9431 15.08845018 85858,6917.865,95.437,540.613,538.847,0.0
52003.0,STARLINK-3654,PAYLOAD,2023-09-17 18:36:06,15.08843196,0.0001332,53.2175,116.9533,93.5699,266.5446,-9.9763e-06,-4.47e-06,0.0,0 STARLINK-3654,1 52003U 22025AZ  23260.77507004 -.00000447  00000-0 -99763-5 0  9990,2 52003  53.2175 116.9533 0001332  93.5699 266.5446 15.08843196 85970,6917.871,95.437,540.657,538.814,0.0
52003.0,STARLINK-3654,PAYLOAD,2023-09-18 00:57:38,15.0884584,0.0001256,53.2167,115.7616,93.3601,266.7535,-5.7376e-06,-3.79e-06,0.0,0 STARLINK-3654,1 52003U 22025AZ  23261.04002780 -.00000379  00000-0 -57376-5 0  9990,2 52003  53.2167 115.7616 0001256  93.3601 266.7535 15.08845840 84503,6917.863,95.437,540.596,538.859,0.0
52003.0,STARLINK-3654,PAYLOAD,2023-09-18 20:02:16,15.08839231,0.0001272,53.2165,112.1931,83.9758,276.1379,3.4297e-05,2.58e-06,0.0,0 STARLINK-3654,1 52003U 22025AZ  23261.83491178  .00000258  00000-0  34297-4 0  9990,2 52003  53.2165 112.1931 0001272  83.9758 276.1379 15.08839231 84629,6917.883,95.438,540.628,538.868,0.0
52003.0,STARLINK-3654,PAYLOAD,2023-09-19 00:48:25,15.08841806,0.0001284,53.2166,111.3005,92.3726,267.7413,7.6621e-05,9.32e-06,0.0,0 STARLINK-3654,1 52003U 22025AZ  23262.03362876  .00000932  00000-0  76621-4 0  9991,2 52003  53.2166 111.3005 0001284  92.3726 267.7413 15.08841806 86162,6917.875,95.437,540.628,538.852,0.0
52003.0,STARLINK-3654,PAYLOAD,2023-09-19 18:17:39,15.08849296,0.000128,53.2171,108.028,87.7961,272.3177,0.00012133,1.644e-05,0.0,0 STARLINK-3654,1 52003U 22025AZ  23262.76226083  .00001644  00000-0  12133-3 0  9998,2 52003  53.2171 108.0280 0001280  87.7961 272.3177 15.08849296 86273,6917.852,95.437,540.602,538.831,0.0
52003.0,STARLINK-3654,PAYLOAD,2023-09-19 21:28:25,15.08852903,0.0001615,53.2184,107.4321,81.1986,278.9189,0.00017574,2.511e-05,0.0,0 STARLINK-3654,1 52003U 22025AZ  23262.89473757  .00002511  00000-0  17574-3 0  9992,2 52003  53.2184 107.4321 0001615  81.1986 278.9189 15.08852903 84781,6917.841,95.437,540.823,538.589,0.0
52003.0,STARLINK-3654,PAYLOAD,2023-09-20 18:08:27,15.08833907,0.0001314,53.218,103.5684,99.4342,260.6799,-6.3618e-05,-1.3e-05,0.0,0 STARLINK-3654,1 52003U 22025AZ  23263.75587841 -.00001300  00000-0 -63618-4 0  9996,2 52003  53.2180 103.5684 0001314  99.4342 260.6799 15.08833907 86421,6917.899,95.438,540.673,538.855,0.0
52003.0,STARLINK-3654,PAYLOAD,2023-09-20 19:43:51,15.08833408,0.0001408,53.218,103.2713,94.4772,265.6381,-7.1352e-05,-1.423e-05,0.0,0 STARLINK-3654,1 52003U 22025AZ  23263.82211956 -.00001423  00000-0 -71352-4 0  9995,2 52003  53.2180 103.2713 0001408  94.4772 265.6381 15.08833408 84928,6917.901,95.438,540.74,538.791,0.0
52003.0,STARLINK-3654,PAYLOAD,2023-09-21 13:13:05,15.08835355,0.0001292,53.2183,100.0002,114.2686,245.8441,-8.2732e-06,-4.2e-06,0.0,0 STARLINK-3654,1 52003U 22025AZ  23264.55075775 -.00000420  00000-0 -82732-5 0  9994,2 52003  53.2183 100.0002 0001292 114.2686 245.8441 15.08835355 85036,6917.895,95.438,540.653,538.866,0.0
52003.0,STARLINK-3654,PAYLOAD,2023-09-22 13:03:52,15.08837984,0.0001377,53.2174,95.5417,99.6275,260.4872,0.0001928,2.782e-05,0.0,0 STARLINK-3654,1 52003U 22025AZ  23265.54435548  .00002782  00000-0  19280-3 0  9999,2 52003  53.2174  95.5417 0001377  99.6275 260.4872 15.08837984 85185,6917.887,95.438,540.704,538.799,0.0
52003.0,STARLINK-3654,PAYLOAD,2023-09-22 17:50:01,15.08841351,0.000142,53.2177,94.6496,100.9288,259.1864,0.00022279,3.26e-05,0.0,0 STARLINK-3654,1 52003U 22025AZ  23265.74307426  .00003260  00000-0  22279-3 0  9998,2 52003  53.2177  94.6496 0001420 100.9288 259.1864 15.08841351 86724,6917.876,95.437,540.724,538.759,0.0
52003.0,STARLINK-3654,PAYLOAD,2023-09-22 19:25:24,15.08842527,0.0001399,53.2176,94.3522,100.5778,259.5372,0.00023792,3.501e-05,0.0,0 STARLINK-3654,1 52003U 22025AZ  23265.80931399  .00003501  00000-0  23792-3 0  9996,2 52003  53.2176  94.3522 0001399 100.5778 259.5372 15.08842527 85223,6917.873,95.437,540.705,538.77,0.0
52003.0,STARLINK-3654,PAYLOAD,2023-09-22 22:36:11,15.08847384,0.0001368,53.2166,93.757,97.7522,262.3625,0.00032015,4.812e-05,0.0,0 STARLINK-3654,1 52003U 22025AZ  23265.94179510  .00004812  00000-0  32015-3 0  9994,2 52003  53.2166  93.7570 0001368  97.7522 262.3625 15.08847384 85249,6917.858,95.437,540.669,538.776,0.0
52003.0,STARLINK-3654,PAYLOAD,2023-09-23 19:16:12,15.08843914,0.0001282,53.2173,89.8895,89.7529,270.361,7.5919e-05,9.21e-06,0.0,0 STARLINK-3654,1 52003U 22025AZ  23266.80291725  .00000921  00000-0  75919-4 0  9991,2 52003  53.2173  89.8895 0001282  89.7529 270.3610 15.08843914 86885,6917.868,95.437,540.62,538.847,0.0
52003.0,STARLINK-3654,PAYLOAD,2023-09-24 12:45:26,15.08842232,0.0001288,53.2162,86.6187,83.8031,276.3108,-2.2048e-05,-6.39e-06,0.0,0 STARLINK-3654,1 52003U 22025AZ  23267.53155613 -.00000639  00000-0 -22048-4 0  9990,2 52003  53.2162  86.6187 0001288  83.8031 276.3108 15.08842232 85486,6917.874,95.437,540.63,538.848,0.0
52003.0,STARLINK-3654,PAYLOAD,2023-09-24 17:31:35,15.08845634,0.0001302,53.2165,85.7265,83.1212,276.9928,4.9721e-05,5.04e-06,0.0,0 STARLINK-3654,1 52003U 22025AZ  23267.73027398  .00000504  00000-0  49721-4 0  9996,2 52003  53.2165  85.7265 0001302  83.1212 276.9928 15.08845634 85516,6917.863,95.437,540.629,538.827,0.0
52003.0,STARLINK-3654,PAYLOAD,2023-09-25 04:39:17,15.08849171,0.0001318,53.2165,83.645,81.7685,278.3457,0.00012409,1.688e-05,0.0,0 STARLINK-3654,1 52003U 22025AZ  23268.19395135  .00001688  00000-0  12409-3 0  9990,2 52003  53.2165  83.6450 0001318  81.7685 278.3457 15.08849171 87092,6917.852,95.437,540.629,538.806,0.0
52003.0,STARLINK-3654,PAYLOAD,2023-09-25 12:36:15,15.08780179,0.0001886,53.2185,82.1601,80.6105,279.51,0.0017005,0.00026835,0.0,0 STARLINK-3654,1 52003U 22025AZ  23268.52518119  .00026835  00000-0  17005-2 0  9993,2 52003  53.2185  82.1601 0001886  80.6105 279.5100 15.08780179 85639,6918.063,95.441,541.233,538.623,0.0
52003.0,STARLINK-3654,PAYLOAD,2023-09-25 18:57:48,15.08794199,0.0001823,53.2185,80.9707,78.8079,281.3118,0.0014143,0.00022264,0.0,0 STARLINK-3654,1 52003U 22025AZ  23268.79014001  .00022264  00000-0  14143-2 0  9995,2 52003  53.2185  80.9707 0001823  78.8079 281.3118 15.08794199 87181,6918.02,95.44,541.147,538.624,0.0
52003.0,STARLINK-3654,PAYLOAD,2023-09-26 17:13:10,15.08834866,0.0001535,53.2188,76.8066,96.6212,263.4955,-1.7171e-05,-5.61e-06,0.0,0 STARLINK-3654,1 52003U 22025AZ  23269.71748620 -.00000561  00000-0 -17171-4 0  9993,2 52003  53.2188  76.8066 0001535  96.6212 263.4955 15.08834866 87325,6917.896,95.438,540.823,538.699,0.0
52003.0,STARLINK-3654,PAYLOAD,2023-09-26 18:48:33,15.08836376,0.0001669,53.2179,76.5092,62.4955,297.6206,2.1261e-06,-2.54e-06,0.0,0 STARLINK-3654,1 52003U 22025AZ  23269.78372675 -.00000254  00000-0  21261-5 0  9997,2 52003  53.2179  76.5092 0001669  62.4955 297.6206 15.08836376 85823,6917.891,95.438,540.911,538.602,0.0
52003.0,STARLINK-3654,PAYLOAD,2023-09-27 04:20:52,15.08840574,0.0001496,53.2192,74.7263,87.8556,272.2608,4.8145e-05,4.78e-06,0.0,0 STARLINK-3654,1 52003U 22025AZ  23270.18116234  .00000478  00000-0  48145-4 0  9996,2 52003  53.2192  74.7263 0001496  87.8556 272.2608 15.08840574 87398,6917.879,95.438,540.779,538.709,0.0
52003.0,STARLINK-3654,PAYLOAD,2023-09-27 10:42:24,15.0883952,0.0001458,53.2188,73.5365,88.4572,271.6587,0.00010634,1.405e-05,0.0,0 STARLINK-3654,1 52003U 22025AZ  23270.44612218  .00001405  00000-0  10634-3 0  9990,2 52003  53.2188  73.5365 0001458  88.4572 271.6587 15.08839520 85921,6917.882,95.438,540.755,538.738,0.0
52003.0,STARLINK-3654,PAYLOAD,2023-09-28 10:33:12,15.08841684,0.0001489,53.2174,69.0764,84.8185,275.2977,0.00014567,2.031e-05,0.0,0 STARLINK-3654,1 52003U 22025AZ  23271.43972292  .00002031  00000-0  14567-3 0  9996,2 52003  53.2174  69.0764 0001489  84.8185 275.2977 15.08841684 87584,6917.875,95.437,540.77,538.71,0.0
52003.0,STARLINK-3654,PAYLOAD,2023-09-28 16:54:44,15.08842246,0.000146,53.2176,67.8866,85.388,274.7279,0.00013723,1.897e-05,0.0,0 STARLINK-3654,1 52003U 22025AZ  23271.70468278  .00001897  00000-0  13723-3 0  9992,2 52003  53.2176  67.8866 0001460  85.3880 274.7279 15.08842246 86114,6917.874,95.437,540.749,538.729,0.0
52003.0,STARLINK-3654,PAYLOAD,2023-09-29 13:34:45,15.08844979,0.0001534,53.2181,64.0213,84.2126,275.9041,9.4617e-05,1.218e-05,0.0,0 STARLINK-3654,1 52003U 22025AZ  23272.56580093  .00001218  00000-0  94617-4 0  9996,2 52003  53.2181  64.0213 0001534  84.2126 275.9041 15.08844979 86247,6917.865,95.437,540.791,538.669,0.0
